IRIDIUM 166             
1 43570U 18061B   24277.86683422  .00000454  00000+0  15505-3 0  9997
2 43570  86.3957 316.4051 0002225  98.9664 261.1784 14.34218563324344
IRIDIUM 158             
1 43571U 18061C   24277.83511994  .00000612  00000+0  21128-3 0  9993
2 43571  86.3958 316.4280 0002300  97.0634 263.0824 14.34219298324310
IRIDIUM 165             
1 43572U 18061D   24277.86049051  .00000140  00000+0  43084-4 0  9999
2 43572  86.3958 316.4518 0002218  93.5474 266.5975 14.34221560324338
IRIDIUM 155             
1 43573U 18061E   24277.82243556 -.00000096  00000+0 -41501-4 0  9996
2 43573  86.3954 316.3670 0002078  99.1527 260.9903 14.34217073324308
IRIDIUM 154             
1 43574U 18061F   24277.66387038  .00000084  00000+0  22919-4 0  9990
2 43574  86.3956 316.5366 0001993  89.7746 270.3678 14.34217833324328
IRIDIUM 163             
1 43575U 18061G   24277.50530384  .00000496  00000+0  16987-3 0  9992
2 43575  86.3956 316.5378 0002024  96.0515 264.0912 14.34220497324278
IRIDIUM 156             
1 43576U 18061H   24277.82877805  .00001143  00000+0  40092-3 0  9994
2 43576  86.3955 316.4092 0002356 100.5205 259.6257 14.34220958324303
IRIDIUM 164             
1 43577U 18061J   24276.83298576 -.00000017  00000+0 -13094-4 0  9991
2 43577  86.3957 316.8556 0002124  88.4445 271.6994 14.34220908324215
